{
  "type": "FeatureCollection",
  "features": [
    {
      "type": "Feature",
      "properties": {
        "norad_id": 38709,
        "name": "EXACTVIEW-1 (ADS-1B)",
        "group": "resource",
        "lat": -76.41487941848867,
        "lon": -130.32555876592977,
        "alt_km": 818.4920982329786,
        "timestamp": "2025-12-08T03:50:06.661799+00:00",
        "meta_object_name": "EXACTVIEW-1 (ADS-1B)",
        "meta_object_id": "2012-039C",
        "meta_epoch": "2025-12-07T06:23:46.166784",
        "meta_mean_motion": 14.24904531,
        "meta_eccentricity": 0.00109583,
        "meta_inclination": 98.9635,
        "meta_ra_of_asc_node": 89.5417,
        "meta_arg_of_pericenter": 9.9723,
        "meta_mean_anomaly": 350.1671,
        "meta_ephemeris_type": 0,
        "meta_classification_type": "U",
        "meta_norad_cat_id": 38709,
        "meta_element_set_no": 999,
        "meta_rev_at_epoch": 69537,
        "meta_bstar": 0.00015799853,
        "meta_mean_motion_dot": 3.23e-06,
        "meta_mean_motion_ddot": 0,
        "tle_line1": "1 38709U 12039C   25341.26650656  .00000323  00000+0  15800-3 0  9997",
        "tle_line2": "2 38709  98.9635  89.5417 0010958   9.9723 350.1671 14.24904531695372"
      },
      "geometry": {
        "type": "Point",
        "coordinates": [
          -130.32555876592977,
          -76.41487941848867
        ]
      }
    },
    {
      "type": "Feature",
      "properties": {
        "norad_id": 38755,
        "name": "SPOT 6",
        "group": "resource",
        "lat": 81.031379614405,
        "lon": -67.61333055062356,
        "alt_km": 689.5183012787129,
        "timestamp": "2025-12-08T03:50:06.661809+00:00",
        "meta_object_name": "SPOT 6",
        "meta_object_id": "2012-047A",
        "meta_epoch": "2025-12-07T07:39:01.594080",
        "meta_mean_motion": 14.58595679,
        "meta_eccentricity": 0.00010678,
        "meta_inclination": 98.1581,
        "meta_ra_of_asc_node": 46.2029,
        "meta_arg_of_pericenter": 101.8892,
        "meta_mean_anomaly": 258.2427,
        "meta_ephemeris_type": 0,
        "meta_classification_type": "U",
        "meta_norad_cat_id": 38755,
        "meta_element_set_no": 999,
        "meta_rev_at_epoch": 70508,
        "meta_bstar": 0.00018450242,
        "meta_mean_motion_dot": 8.13e-06,
        "meta_mean_motion_ddot": 0,
        "tle_line1": "1 38755U 12047A   25341.31876845  .00000813  00000+0  18450-3 0  9991",
        "tle_line2": "2 38755  98.1581  46.2029 0001067 101.8892 258.2427 14.58595679705087"
      },
      "geometry": {
        "type": "Point",
        "coordinates": [
          -67.61333055062356,
          81.031379614405
        ]
      }
    },
    {
      "type": "Feature",
      "properties": {
        "norad_id": 39019,
        "name": "PLEIADES 1B",
        "group": "resource",
        "lat": -6.960433173174811,
        "lon": 55.89003355425992,
        "alt_km": 701.7350090380041,
        "timestamp": "2025-12-08T03:50:06.661819+00:00",
        "meta_object_name": "PLEIADES 1B",
        "meta_object_id": "2012-068A",
        "meta_epoch": "2025-12-07T06:27:48.552480",
        "meta_mean_motion": 14.58545026,
        "meta_eccentricity": 0.00012177,
        "meta_inclination": 98.1802,
        "meta_ra_of_asc_node": 54.0074,
        "meta_arg_of_pericenter": 87.159,
        "meta_mean_anomaly": 272.9748,
        "meta_ephemeris_type": 0,
        "meta_classification_type": "U",
        "meta_norad_cat_id": 39019,
        "meta_element_set_no": 999,
        "meta_rev_at_epoch": 69287,
        "meta_bstar": 0.00019181722,
        "meta_mean_motion_dot": 8.46e-06,
        "meta_mean_motion_ddot": 0,
        "tle_line1": "1 39019U 12068A   25341.26931195  .00000846  00000+0  19182-3 0  9991",
        "tle_line2": "2 39019  98.1802  54.0074 0001217  87.1590 272.9748 14.58545026692874"
      },
      "geometry": {
        "type": "Point",
        "coordinates": [
          55.89003355425992,
          -6.960433173174811
        ]
      }
    },
    {
      "type": "Feature",
      "properties": {
        "norad_id": 39030,
        "name": "GOKTURK 2",
        "group": "resource",
        "lat": -65.79916341280016,
        "lon": -158.46462538628708,
        "alt_km": 652.0995510094226,
        "timestamp": "2025-12-08T03:50:06.661829+00:00",
        "meta_object_name": "GOKTURK 2",
        "meta_object_id": "2012-073A",
        "meta_epoch": "2025-12-07T05:20:57.105024",
        "meta_mean_motion": 14.75279629,
        "meta_eccentricity": 8.774e-05,
        "meta_inclination": 97.6904,
        "meta_ra_of_asc_node": 183.1478,
        "meta_arg_of_pericenter": 102.762,
        "meta_mean_anomaly": 257.3688,
        "meta_ephemeris_type": 0,
        "meta_classification_type": "U",
        "meta_norad_cat_id": 39030,
        "meta_element_set_no": 999,
        "meta_rev_at_epoch": 69620,
        "meta_bstar": 0.00018161807,
        "meta_mean_motion_dot": 1.182e-05,
        "meta_mean_motion_ddot": 0,
        "tle_line1": "1 39030U 12073A   25341.22288316  .00001182  00000+0  18162-3 0  9997",
        "tle_line2": "2 39030  97.6904 183.1478 0000877 102.7620 257.3688 14.75279629696208"
      },
      "geometry": {
        "type": "Point",
        "coordinates": [
          -158.46462538628708,
          -65.79916341280016
        ]
      }
    },
    {
      "type": "Feature",
      "properties": {
        "norad_id": 39084,
        "name": "LANDSAT 8",
        "group": "resource",
        "lat": -6.876486417496907,
        "lon": -130.69663192192627,
        "alt_km": 706.5466329431792,
        "timestamp": "2025-12-08T03:50:06.661839+00:00",
        "meta_object_name": "LANDSAT 8",
        "meta_object_id": "2013-008A",
        "meta_epoch": "2025-12-07T07:12:13.182912",
        "meta_mean_motion": 14.57106079,
        "meta_eccentricity": 0.00011297,
        "meta_inclination": 98.2079,
        "meta_ra_of_asc_node": 49.4538,
        "meta_arg_of_pericenter": 86.0633,
        "meta_mean_anomaly": 274.0695,
        "meta_ephemeris_type": 0,
        "meta_classification_type": "U",
        "meta_norad_cat_id": 39084,
        "meta_element_set_no": 999,
        "meta_rev_at_epoch": 66995,
        "meta_bstar": 0.00019621569,
        "meta_mean_motion_dot": 8.39e-06,
        "meta_mean_motion_ddot": 0,
        "tle_line1": "1 39084U 13008A   25341.30015258  .00000839  00000+0  19622-3 0  9997",
        "tle_line2": "2 39084  98.2079  49.4538 0001129  86.0633 274.0695 14.57106079669951"
      },
      "geometry": {
        "type": "Point",
        "coordinates": [
          -130.69663192192627,
          -6.876486417496907
        ]
      }
    },
    {
      "type": "Feature",
      "properties": {
        "norad_id": 39086,
        "name": "SARAL",
        "group": "resource",
        "lat": -33.097142949577744,
        "lon": -19.478256573183693,
        "alt_km": 788.8862285356063,
        "timestamp": "2025-12-08T03:50:06.661849+00:00",
        "meta_object_name": "SARAL",
        "meta_object_id": "2013-009A",
        "meta_epoch": "2025-12-07T06:43:47.103456",
        "meta_mean_motion": 14.327542,
        "meta_eccentricity": 0.00027444,
        "meta_inclination": 98.5505,
        "meta_ra_of_asc_node": 165.282,
        "meta_arg_of_pericenter": 118.9579,
        "meta_mean_anomaly": 241.188,
        "meta_ephemeris_type": 0,
        "meta_classification_type": "U",
        "meta_norad_cat_id": 39086,
        "meta_element_set_no": 999,
        "meta_rev_at_epoch": 66812,
        "meta_bstar": 0.00011338664,
        "meta_mean_motion_dot": 2.65e-06,
        "meta_mean_motion_ddot": 0,
        "tle_line1": "1 39086U 13009A   25341.28040629  .00000265  00000+0  11339-3 0  9997",
        "tle_line2": "2 39086  98.5505 165.2820 0002744 118.9579 241.1880 14.32754200668126"
      },
      "geometry": {
        "type": "Point",
        "coordinates": [
          -19.478256573183693,
          -33.097142949577744
        ]
      }
    },
    {
      "type": "Feature",
      "properties": {
        "norad_id": 39150,
        "name": "GAOFEN-1",
        "group": "resource",
        "lat": -9.516272288870589,
        "lon": 54.239414487527256,
        "alt_km": 656.7314887896737,
        "timestamp": "2025-12-08T03:50:06.661859+00:00",
        "meta_object_name": "GAOFEN-1",
        "meta_object_id": "2013-018A",
        "meta_epoch": "2025-12-07T06:44:06.443232",
        "meta_mean_motion": 14.76519558,
        "meta_eccentricity": 0.00179165,
        "meta_inclination": 97.9333,
        "meta_ra_of_asc_node": 52.0363,
        "meta_arg_of_pericenter": 160.1078,
        "meta_mean_anomaly": 200.0834,
        "meta_ephemeris_type": 0,
        "meta_classification_type": "U",
        "meta_norad_cat_id": 39150,
        "meta_element_set_no": 999,
        "meta_rev_at_epoch": 67992,
        "meta_bstar": 0.00023129079,
        "meta_mean_motion_dot": 1.565e-05,
        "meta_mean_motion_ddot": 0,
        "tle_line1": "1 39150U 13018A   25341.28063013  .00001565  00000+0  23129-3 0  9995",
        "tle_line2": "2 39150  97.9333  52.0363 0017916 160.1078 200.0834 14.76519558679921"
      },
      "geometry": {
        "type": "Point",
        "coordinates": [
          54.239414487527256,
          -9.516272288870589
        ]
      }
    }
  ]
}